{
  "type": "FeatureCollection",
  "features": [
    {
      "type": "Feature",
      "properties": {
        "norad_id": 29887,
        "name": "FENGYUN 1C DEB",
        "group": "fengyun-1c-debris",
        "lat": 16.887220980027855,
        "lon": 73.96074739924049,
        "alt_km": 625.4248499662572,
        "timestamp": "2025-12-20T22:39:10.898876+00:00",
        "meta_object_name": "FENGYUN 1C DEB",
        "meta_object_id": "1999-025GH",
        "meta_epoch": "2025-12-20T04:25:56.133408",
        "meta_mean_motion": 14.33738506,
        "meta_eccentricity": 0.02865575,
        "meta_inclination": 98.7178,
        "meta_ra_of_asc_node": 75.8646,
        "meta_arg_of_pericenter": 337.1407,
        "meta_mean_anomaly": 81.5503,
        "meta_ephemeris_type": 0,
        "meta_classification_type": "U",
        "meta_norad_cat_id": 29887,
        "meta_element_set_no": 999,
        "meta_rev_at_epoch": 98081,
        "meta_bstar": 0.0003516452,
        "meta_mean_motion_dot": 1.489e-05,
        "meta_mean_motion_ddot": 0,
        "tle_line1": "1 29887U 99025GH  25354.18467747  .00001489  00000+0  35165-3 0  9996",
        "tle_line2": "2 29887  98.7178  75.8646 0286557 337.1407  81.5503 14.33738506980818"
      },
      "geometry": {
        "type": "Point",
        "coordinates": [
          73.96074739924049,
          16.887220980027855
        ]
      }
    },
    {
      "type": "Feature",
      "properties": {
        "norad_id": 29888,
        "name": "FENGYUN 1C DEB",
        "group": "fengyun-1c-debris",
        "lat": 46.74474989998848,
        "lon": 178.06993891604864,
        "alt_km": 680.2727189200996,
        "timestamp": "2025-12-20T22:39:10.898885+00:00",
        "meta_object_name": "FENGYUN 1C DEB",
        "meta_object_id": "1999-025GJ",
        "meta_epoch": "2025-12-20T10:36:09.048960",
        "meta_mean_motion": 14.19871953,
        "meta_eccentricity": 0.02747676,
        "meta_inclination": 99.1913,
        "meta_ra_of_asc_node": 187.4572,
        "meta_arg_of_pericenter": 3.4867,
        "meta_mean_anomaly": 356.8141,
        "meta_ephemeris_type": 0,
        "meta_classification_type": "U",
        "meta_norad_cat_id": 29888,
        "meta_element_set_no": 999,
        "meta_rev_at_epoch": 97613,
        "meta_bstar": 0.00026703258,
        "meta_mean_motion_dot": 7.72e-06,
        "meta_mean_motion_ddot": 0,
        "tle_line1": "1 29888U 99025GJ  25354.44177140  .00000772  00000+0  26703-3 0  9993",
        "tle_line2": "2 29888  99.1913 187.4572 0274767   3.4867 356.8141 14.19871953976136"
      },
      "geometry": {
        "type": "Point",
        "coordinates": [
          178.06993891604864,
          46.74474989998848
        ]
      }
    },
    {
      "type": "Feature",
      "properties": {
        "norad_id": 29889,
        "name": "FENGYUN 1C DEB",
        "group": "fengyun-1c-debris",
        "lat": -59.42617574128702,
        "lon": 129.24876268913115,
        "alt_km": 827.7862067080796,
        "timestamp": "2025-12-20T22:39:10.898894+00:00",
        "meta_object_name": "FENGYUN 1C DEB",
        "meta_object_id": "1999-025GK",
        "meta_epoch": "2025-12-19T22:02:42.107424",
        "meta_mean_motion": 14.13519281,
        "meta_eccentricity": 0.0154189,
        "meta_inclination": 99.4772,
        "meta_ra_of_asc_node": 111.7388,
        "meta_arg_of_pericenter": 19.1487,
        "meta_mean_anomaly": 107.1044,
        "meta_ephemeris_type": 0,
        "meta_classification_type": "U",
        "meta_norad_cat_id": 29889,
        "meta_element_set_no": 999,
        "meta_rev_at_epoch": 97420,
        "meta_bstar": 0.0001992,
        "meta_mean_motion_dot": 3.71e-06,
        "meta_mean_motion_ddot": 0,
        "tle_line1": "1 29889U 99025GK  25353.91854291  .00000371  00000+0  19920-3 0  9992",
        "tle_line2": "2 29889  99.4772 111.7388 0154189  19.1487 107.1044 14.13519281974207"
      },
      "geometry": {
        "type": "Point",
        "coordinates": [
          129.24876268913115,
          -59.42617574128702
        ]
      }
    },
    {
      "type": "Feature",
      "properties": {
        "norad_id": 29890,
        "name": "FENGYUN 1C DEB",
        "group": "fengyun-1c-debris",
        "lat": 79.64143697558434,
        "lon": 51.154749442112475,
        "alt_km": 799.023536820655,
        "timestamp": "2025-12-20T22:39:10.898903+00:00",
        "meta_object_name": "FENGYUN 1C DEB",
        "meta_object_id": "1999-025GL",
        "meta_epoch": "2025-12-20T07:03:56.037312",
        "meta_mean_motion": 14.23062938,
        "meta_eccentricity": 0.00145161,
        "meta_inclination": 99.4686,
        "meta_ra_of_asc_node": 116.3813,
        "meta_arg_of_pericenter": 52.6324,
        "meta_mean_anomaly": 307.6171,
        "meta_ephemeris_type": 0,
        "meta_classification_type": "U",
        "meta_norad_cat_id": 29890,
        "meta_element_set_no": 999,
        "meta_rev_at_epoch": 97558,
        "meta_bstar": 0.00061124814,
        "meta_mean_motion_dot": 1.33e-05,
        "meta_mean_motion_ddot": 0,
        "tle_line1": "1 29890U 99025GL  25354.29439858  .00001330  00000+0  61125-3 0  9994",
        "tle_line2": "2 29890  99.4686 116.3813 0014516  52.6324 307.6171 14.23062938975581"
      },
      "geometry": {
        "type": "Point",
        "coordinates": [
          51.154749442112475,
          79.64143697558434
        ]
      }
    },
    {
      "type": "Feature",
      "properties": {
        "norad_id": 29891,
        "name": "FENGYUN 1C DEB",
        "group": "fengyun-1c-debris",
        "lat": 49.53175544831287,
        "lon": -13.679369247535918,
        "alt_km": 933.3048870766206,
        "timestamp": "2025-12-20T22:39:10.898913+00:00",
        "meta_object_name": "FENGYUN 1C DEB",
        "meta_object_id": "1999-025GM",
        "meta_epoch": "2025-12-20T12:41:50.747712",
        "meta_mean_motion": 14.000081,
        "meta_eccentricity": 0.00610703,
        "meta_inclination": 98.7268,
        "meta_ra_of_asc_node": 356.297,
        "meta_arg_of_pericenter": 238.4259,
        "meta_mean_anomaly": 242.3516,
        "meta_ephemeris_type": 0,
        "meta_classification_type": "U",
        "meta_norad_cat_id": 29891,
        "meta_element_set_no": 999,
        "meta_rev_at_epoch": 96597,
        "meta_bstar": 0.00045409593,
        "meta_mean_motion_dot": 6.37e-06,
        "meta_mean_motion_ddot": 0,
        "tle_line1": "1 29891U 99025GM  25354.52905958  .00000637  00000+0  45410-3 0  9998",
        "tle_line2": "2 29891  98.7268 356.2970 0061070 238.4259 242.3516 14.00008100965973"
      },
      "geometry": {
        "type": "Point",
        "coordinates": [
          -13.679369247535918,
          49.53175544831287
        ]
      }
    },
    {
      "type": "Feature",
      "properties": {
        "norad_id": 29892,
        "name": "FENGYUN 1C DEB",
        "group": "fengyun-1c-debris",
        "lat": -25.494795618594946,
        "lon": 147.39676104138837,
        "alt_km": 720.0660524076511,
        "timestamp": "2025-12-20T22:39:10.898922+00:00",
        "meta_object_name": "FENGYUN 1C DEB",
        "meta_object_id": "1999-025GN",
        "meta_epoch": "2025-12-20T09:37:06.482208",
        "meta_mean_motion": 14.32322621,
        "meta_eccentricity": 0.01920639,
        "meta_inclination": 99.1804,
        "meta_ra_of_asc_node": 142.3989,
        "meta_arg_of_pericenter": 275.2021,
        "meta_mean_anomaly": 138.2675,
        "meta_ephemeris_type": 0,
        "meta_classification_type": "U",
        "meta_norad_cat_id": 29892,
        "meta_element_set_no": 999,
        "meta_rev_at_epoch": 96759,
        "meta_bstar": 0.002228205,
        "meta_mean_motion_dot": 7.331e-05,
        "meta_mean_motion_ddot": 0,
        "tle_line1": "1 29892U 99025GN  25354.40076947  .00007331  00000+0  22282-2 0  9992",
        "tle_line2": "2 29892  99.1804 142.3989 0192063 275.2021 138.2675 14.32322621967593"
      },
      "geometry": {
        "type": "Point",
        "coordinates": [
          147.39676104138837,
          -25.494795618594946
        ]
      }
    },
    {
      "type": "Feature",
      "properties": {
        "norad_id": 29893,
        "name": "FENGYUN 1C DEB",
        "group": "fengyun-1c-debris",
        "lat": -22.83995449909107,
        "lon": 93.8557469602862,
        "alt_km": 1085.7861583334561,
        "timestamp": "2025-12-20T22:39:10.898930+00:00",
        "meta_object_name": "FENGYUN 1C DEB",
        "meta_object_id": "1999-025GP",
        "meta_epoch": "2025-12-20T12:25:19.851168",
        "meta_mean_motion": 13.79464913,
        "meta_eccentricity": 0.01739018,
        "meta_inclination": 98.5532,
        "meta_ra_of_asc_node": 89.8363,
        "meta_arg_of_pericenter": 132.4569,
        "meta_mean_anomaly": 249.6042,
        "meta_ephemeris_type": 0,
        "meta_classification_type": "U",
        "meta_norad_cat_id": 29893,
        "meta_element_set_no": 999,
        "meta_rev_at_epoch": 95247,
        "meta_bstar": 0.00015264189,
        "meta_mean_motion_dot": 1.39e-06,
        "meta_mean_motion_ddot": 0,
        "tle_line1": "1 29893U 99025GP  25354.51759087  .00000139  00000+0  15264-3 0  9990",
        "tle_line2": "2 29893  98.5532  89.8363 0173901 132.4569 249.6042 13.79464913952474"
      },
      "geometry": {
        "type": "Point",
        "coordinates": [
          93.8557469602862,
          -22.83995449909107
        ]
      }
    }
  ]
}